STARLINK-32090          
1 59691U 24086K   26068.01197643  .00000826  00000+0  39508-4 0  9997
2 59691  42.9985  67.5931 0000568 296.4773  63.6020 15.27581318103964
LIME                    
1 62648U 25009AR  26068.73906781  .00013254  00000+0  47723-3 0  9995
2 62648  97.3985 151.4831 0001635  35.9029 324.2320 15.28703313 63766
